stk.v.12.0
WrittenBy    STK_v12.7.0

BEGIN Aircraft

    Name		 Wingman

    BEGIN VehiclePath
        CentralBody		 Earth

        BEGIN Interval

            StartTime		 9 Feb 2023 17:00:00.000000000
            StopTime		 9 Feb 2023 17:22:53.517905828

        END Interval

        StoreEphemeris		 Yes
        SmoothInterp		 No

        BEGIN Aviator

            OptimizeForSpeed		 No

        END Aviator

    END VehiclePath

    BEGIN Ephemeris

        NumberOfEphemerisPoints		 2459

        ScenarioEpoch		 9 Feb 2023 17:00:00.000000

# Epoch in JDate format: 2459985.20833333333333
# Epoch in YYDDD format:   23040.70833333333333


        InterpolationMethod		 Aviator

        InterpolationSamplesM1		 1

        CentralBody		 Earth

        CoordinateSystem		 Fixed

        BlockingFactor		 20

# Time of first point: 9 Feb 2023 17:00:00.000000000 UTCG = 2459985.20833333333333 JDate = 23040.70833333333333 YYDDD

        EphemerisTimePosVel		

 6.2951600000000326e+02  6.3806682466738624e+06  1.1105064405226192e+04  9.3534449013559366e+04  5.7430267380550504e+01 -1.0143423058156259e+01  1.8135568662239530e+02
 6.2971600000000035e+02  6.3806799085988039e+06  1.1103013014427630e+04  9.3570198549168883e+04  5.9226104996167123e+01 -1.0375357028263352e+01  1.7600671532032720e+02
 6.2991599999999744e+02  6.3806919519650377e+06  1.1100912313574747e+04  9.3604798518023366e+04  6.1244680283125490e+01 -1.0636523601374847e+01  1.6986001907192986e+02
 6.3011600000000180e+02  6.3807044220080832e+06  1.1098756875219873e+04  9.3638100239759049e+04  6.3542873208294623e+01 -1.0891869332110900e+01  1.6382330982539133e+02
 6.3031599999999889e+02  6.3807174124251232e+06  1.1096577879841980e+04  9.3670885580305461e+04  6.6363270679488778e+01 -1.0896106926407811e+01  1.6400085438275710e+02
 6.3051600000000326e+02  6.3807309681057511e+06  1.1094399223457607e+04  9.3703688885008014e+04  6.9195509068667889e+01 -1.0888479396066032e+01  1.6400295137465582e+02
 6.3071600000000035e+02  6.3807450914181462e+06  1.1092223279091844e+04  9.3736475064351194e+04  7.2039588378742337e+01 -1.0868986741090339e+01  1.6382960080105113e+02
 6.3091599999999744e+02  6.3807597847304950e+06  1.1090052419769539e+04  9.3769209028823127e+04  7.4895508602261543e+01 -1.0837628961486189e+01  1.6348080266197212e+02
 6.3111600000000180e+02  6.3807750510546099e+06  1.1087888924354453e+04  9.3801857112221565e+04  7.7815999004058540e+01 -1.0802173372525431e+01  1.6307395051130152e+02
 6.3131599999999889e+02  6.3807909303049557e+06  1.1085728745114153e+04  9.3834481021559477e+04  8.0911968927830458e+01 -1.0791610483654949e+01  1.6304371134244138e+02
 6.3151600000000326e+02  6.3808073900277382e+06  1.1083575483562065e+04  9.3867026024400853e+04  8.3618588495613949e+01 -1.0733165105428693e+01  1.6228729772082647e+02
 6.3171600000000035e+02  6.3808241617311370e+06  1.1081421346189958e+04  9.3899596587699998e+04  8.4095898136496544e+01 -1.0806857528810724e+01  1.6339818299171748e+02
 6.3191599999999744e+02  6.3808410273680519e+06  1.1079253280985449e+04  9.3932377236683067e+04  8.4557923672720790e+01 -1.0872443429496343e+01  1.6438815455973963e+02
 6.3211600000000180e+02  6.3808579838816654e+06  1.1077072909252995e+04  9.3965343788610655e+04  8.5004665110260248e+01 -1.0929922807470575e+01  1.6525721242511645e+02
 6.3231599999999889e+02  6.3808750282151550e+06  1.1074881852297291e+04  9.3998472060739819e+04  8.5436122439801693e+01 -1.0979295662758886e+01  1.6600535658757144e+02
 6.3251600000000326e+02  6.3808921573117115e+06  1.1072681731418154e+04  9.4031737870400510e+04  8.5852378262505226e+01 -1.1020605374443708e+01  1.6663323411977490e+02
 6.3451578948774841e+02  6.3810683785760365e+06  1.1050032632161430e+04  9.4374188128754715e+04  9.0318187070989865e+01 -1.1595412207589801e+01  1.7532394689147335e+02
 6.3651578948774841e+02  6.3812535565011604e+06  1.1026229077724294e+04  9.4734092644479329e+04  9.4782764807416200e+01 -1.2170315881241153e+01  1.8401604945069411e+02
 6.3851578948774841e+02  6.3814476066635707e+06  1.1001281429614946e+04  9.5111294620361470e+04  9.8708133552643901e+01 -1.2676223027465047e+01  1.9166484934514395e+02
 6.4051578948774841e+02  6.3816451001862846e+06  1.0975887289445593e+04  9.5495246405447382e+04  9.8694118531491341e+01 -1.2676338065076743e+01  1.9166602643803532e+02
 6.4251578948774841e+02  6.3818425705346810e+06  1.0950492291346151e+04  9.5879210118071860e+04  9.8680104267955159e+01 -1.2676453044035082e+01  1.9166720268872766e+02
 6.4451578948774841e+02  6.3820400177087775e+06  1.0925096435436521e+04  9.6263185756499632e+04  9.8666090762008992e+01 -1.2676567964346646e+01  1.9166837809734230e+02
 6.4651578948774841e+02  6.3822374417085852e+06  1.0899699721836618e+04  9.6647173318987741e+04  9.8652078013626507e+01 -1.2676682826019542e+01  1.9166955266400001e+02
 6.4851578948774841e+02  6.3824348425341202e+06  1.0874302150666354e+04  9.7031172803787325e+04  9.8638066022781800e+01 -1.2676797629063378e+01  1.9167072638882161e+02
 6.5051578948774841e+02  6.3826322201853991e+06  1.0848903722045614e+04  9.7415184209143015e+04  9.8624054789449033e+01 -1.2676912373485248e+01  1.9167189927192791e+02
 6.5251578948774841e+02  6.3828295746624386e+06  1.0823504436094288e+04  9.7799207533295368e+04  9.8610044313602515e+01 -1.2677027059293410e+01  1.9167307131343946e+02
 6.5451578948774841e+02  6.3830269059652463e+06  1.0798104292932252e+04  9.8183242774480692e+04  9.8596034595216665e+01 -1.2677141686496961e+01  1.9167424251347683e+02
 6.5651578948774841e+02  6.3832242140938472e+06  1.0772703292679396e+04  9.8567289930932660e+04  9.8582025634265989e+01 -1.2677256255102813e+01  1.9167541287216051e+02
 6.5851578948774841e+02  6.3834214990482554e+06  1.0747301435455567e+04  9.8951349000882430e+04  9.8568017430725121e+01 -1.2677370765118885e+01  1.9167658238961099e+02
 6.6051578948774841e+02  6.3836187608284838e+06  1.0721898721380650e+04  9.9335419982559397e+04  9.8554009984568708e+01 -1.2677485216554777e+01  1.9167775106594851e+02
 6.6251578948774841e+02  6.3838159994345447e+06  1.0696495150574448e+04  9.9719502874190905e+04  9.8540003295771399e+01 -1.2677599609417726e+01  1.9167891890129357e+02
 6.6451578948774841e+02  6.3840132148664659e+06  1.0671090723156851e+04  1.0010359767400425e+05  9.8525997364307941e+01 -1.2677713943716652e+01  1.9168008589576630e+02
 6.6651578948774841e+02  6.3842104071242539e+06  1.0645685439247680e+04  1.0048770438022501e+05  9.8511992190153137e+01 -1.2677828219457774e+01  1.9168125204948723e+02
 6.6851578948774841e+02  6.3844075762079293e+06  1.0620279298966765e+04  1.0087182299107852e+05  9.8497987773281665e+01 -1.2677942436652037e+01  1.9168241736257627e+02
 6.7051578948774841e+02  6.3846047221175060e+06  1.0594872302433925e+04  1.0125595350478971e+05  9.8483984113668342e+01 -1.2678056595305824e+01  1.9168358183515383e+02
 6.7251578948774841e+02  6.3848018448530063e+06  1.0569464449768997e+04  1.0164009591958296e+05  9.8469981211287987e+01 -1.2678170695427035e+01  1.9168474546734015e+02
 6.7451578948774841e+02  6.3849989444144377e+06  1.0544055741091744e+04  1.0202425023368250e+05  9.8455979066115347e+01 -1.2678284737024740e+01  1.9168590825925529e+02
 6.7651578948774841e+02  6.3851960208018301e+06  1.0518646176522017e+04  1.0240841644531272e+05  9.8441977678125269e+01 -1.2678398720106340e+01  1.9168707021101952e+02
 6.7817733198179485e+02  6.3853597286103740e+06  1.0497536140200240e+04  1.0272757751348197e+05  9.8430353189122684e+01 -1.2678494245232887e+01  1.9168804813221780e+02
 6.7843755102533032e+02  6.3853852134501813e+06  1.0494227688537794e+04  1.0277759051378991e+05  9.7437561404425651e+01 -1.2748679001566870e+01  1.9268798554825480e+02
 6.7861600000000180e+02  6.3854025391877489e+06  1.0491948681566970e+04  1.0281203252097344e+05  9.6741836803033948e+01 -1.2793229099293058e+01  1.9331990633604437e+02
 6.7881599999999889e+02  6.3854218083933126e+06  1.0489385327898370e+04  1.0285076304025366e+05  9.5947680381592363e+01 -1.2839697789568163e+01  1.9397612263886549e+02
 6.7901600000000326e+02  6.3854409172445182e+06  1.0486813046370116e+04  1.0288961930449614e+05  9.5138293205760419e+01 -1.2882507694919695e+01  1.9457735594460974e+02
 6.7921600000000035e+02  6.3854598626952115e+06  1.0484232568739380e+04  1.0292859031709866e+05  9.4313675273209810e+01 -1.2921658815346746e+01  1.9512360625322617e+02
 6.7941599999999744e+02  6.3854786416992433e+06  1.0481644626763049e+04  1.0296766508146317e+05  9.3473826580680907e+01 -1.2957151150855680e+01  1.9561487356477301e+02
 6.7961600000000180e+02  6.3854972512104614e+06  1.0479049952198015e+04  1.0300683260099171e+05  9.2618747133761644e+01 -1.2988984701436493e+01  1.9605115787922114e+02
 6.7981599999999889e+02  6.3855156881827116e+06  1.0476449276801450e+04  1.0304608187908200e+05  9.1748436926864088e+01 -1.3017159467095553e+01  1.9643245919656329e+02
 6.8001600000000326e+02  6.3855339495698493e+06  1.0473843332330154e+04  1.0308540191913747e+05  9.0862895965343341e+01 -1.3041675447829675e+01  1.9675877751678127e+02
 6.8021600000000035e+02  6.3855520347482273e+06  1.0471232087129632e+04  1.0312479317017649e+05  9.0075828045606613e+01 -1.3098346403159667e+01  1.9756706111272797e+02
 6.8041599999999744e+02  6.3855699566408368e+06  1.0468611331321641e+04  1.0316431873656133e+05  8.9141906655277126e+01 -1.3109224593149975e+01  1.9768874832508300e+02
 6.8061600000000180e+02  6.3855877038731333e+06  1.0465984405437330e+04  1.0320392850708845e+05  8.8328013071324676e+01 -1.3159382251697934e+01  1.9839917203697405e+02
 6.8081599999999889e+02  6.3856052868847772e+06  1.0463347839220032e+04  1.0324367449141624e+05  8.7499700171407312e+01 -1.3205627923957763e+01  1.9905088634666026e+02
 6.8101600000000326e+02  6.3856227027919143e+06  1.0460702415066815e+04  1.0328354494766722e+05  8.6656967953778803e+01 -1.3247961609930826e+01  1.9964389125409070e+02
